NORAD_CAT_ID,OBJECT_NAME,OBJECT_TYPE,EPOCH,MEAN_MOTION,ECCENTRICITY,INCLINATION,RA_OF_ASC_NODE,ARG_OF_PERICENTER,MEAN_ANOMALY,BSTAR,MEAN_MOTION_DOT,MEAN_MOTION_DDOT,TLE_LINE0,TLE_LINE1,TLE_LINE2,SEMIMAJOR_AXIS,PERIOD,APOGEE,PERIGEE,DECAYED
55295.0,STARLINK-5293,PAYLOAD,2024-08-21 13:45:35,14.9833781,0.0003195,70.0024,29.448,278.3892,81.6905,-4.3067e-05,-6.07e-06,0.0,0 STARLINK-5293,1 55295U 23010AC  24234.57332209 -.00000607  00000-0 -43067-4 0  9997,2 55295  70.0024  29.4480 0003195 278.3892  81.6905 14.98337810 87823,6950.169,96.106,574.254,569.813,0.0
55295.0,STARLINK-5293,PAYLOAD,2024-08-21 20:10:07,14.98339702,0.0003229,70.0021,28.7747,278.8615,81.2178,-5.86e-05,-7.92e-06,0.0,0 STARLINK-5293,1 55295U 23010AC  24234.84036150 -.00000792  00000-0 -58600-4 0  9997,2 55295  70.0021  28.7747 0003229 278.8615  81.2178 14.98339702 88173,6950.163,96.106,574.272,569.784,0.0
